[{"OBJECT_NAME":"STARLINK-30390","OBJECT_ID":"2023-138M","EPOCH":"2026-03-09T22:00:01.999584","MEAN_MOTION":15.26710793,"ECCENTRICITY":0.00017343,"INCLINATION":43.0006,"RA_OF_ASC_NODE":233.0095,"ARG_OF_PERICENTER":286.8346,"MEAN_ANOMALY":4.739,"EPHEMERIS_TYPE":0,"CLASSIFICATION_TYPE":"U","NORAD_CAT_ID":57819,"ELEMENT_SET_NO":999,"REV_AT_EPOCH":572,"BSTAR":0.0028597746,"MEAN_MOTION_DOT":0.00077189,"MEAN_MOTION_DDOT":0},{"OBJECT_NAME":"OBJECT A","OBJECT_ID":"2024-203A","EPOCH":"2026-03-09T23:31:20.812800","MEAN_MOTION":15.27300571,"ECCENTRICITY":0.00108989,"INCLINATION":97.4288,"RA_OF_ASC_NODE":139.5608,"ARG_OF_PERICENTER":322.6893,"MEAN_ANOMALY":37.3588,"EPHEMERIS_TYPE":0,"CLASSIFICATION_TYPE":"U","NORAD_CAT_ID":61869,"ELEMENT_SET_NO":999,"REV_AT_EPOCH":7380,"BSTAR":0.00061472876,"MEAN_MOTION_DOT":0.00016411,"MEAN_MOTION_DDOT":0}]
